CCSDS_OMM_VERS = 2.0
CREATION_DATE  = 
ORIGINATOR     = 

OBJECT_NAME    = SL-3 R/B
OBJECT_ID      = 1988-032B
CENTER_NAME    = EARTH
REF_FRAME      = TEME
TIME_SYSTEM    = UTC
MEAN_ELEMENT_THEORY = SGP/SGP4

EPOCH          = 2026-03-31T06:13:05.125440
MEAN_MOTION    = 15.20148548
ECCENTRICITY   = .00266237
INCLINATION    = 97.5211
RA_OF_ASC_NODE = 73.4409
ARG_OF_PERICENTER = 155.0220
MEAN_ANOMALY   = 205.2310

EPHEMERIS_TYPE = 0
CLASSIFICATION_TYPE = U
NORAD_CAT_ID   = 19046
ELEMENT_SET_NO = 999
REV_AT_EPOCH   = 5538
BSTAR          = .27471092E-3
MEAN_MOTION_DOT = .5928E-4
MEAN_MOTION_DDOT = 0

CCSDS_OMM_VERS = 2.0
CREATION_DATE  = 
ORIGINATOR     = 

OBJECT_NAME    = SL-16 R/B
OBJECT_ID      = 1988-039B
CENTER_NAME    = EARTH
REF_FRAME      = TEME
TIME_SYSTEM    = UTC
MEAN_ELEMENT_THEORY = SGP/SGP4

EPOCH          = 2026-03-31T06:14:24.578880
MEAN_MOTION    = 14.19620038
ECCENTRICITY   = .00237313
INCLINATION    = 71.0171
RA_OF_ASC_NODE = 22.9362
ARG_OF_PERICENTER = 303.4970
MEAN_ANOMALY   = 56.3888

EPHEMERIS_TYPE = 0
CLASSIFICATION_TYPE = U
NORAD_CAT_ID   = 19120
ELEMENT_SET_NO = 999
REV_AT_EPOCH   = 96144
BSTAR          = .73800359E-4
MEAN_MOTION_DOT = .108E-5
MEAN_MOTION_DDOT = 0

CCSDS_OMM_VERS = 2.0
CREATION_DATE  = 
ORIGINATOR     = 

OBJECT_NAME    = COSMOS 1953
OBJECT_ID      = 1988-050A
CENTER_NAME    = EARTH
REF_FRAME      = TEME
TIME_SYSTEM    = UTC
MEAN_ELEMENT_THEORY = SGP/SGP4

EPOCH          = 2026-03-31T03:51:58.150944
MEAN_MOTION    = 15.28860160
ECCENTRICITY   = .0012214
INCLINATION    = 82.5073
RA_OF_ASC_NODE = 136.6473
ARG_OF_PERICENTER = 55.6435
MEAN_ANOMALY   = 304.5958

EPHEMERIS_TYPE = 0
CLASSIFICATION_TYPE = U
NORAD_CAT_ID   = 19210
ELEMENT_SET_NO = 999
REV_AT_EPOCH   = 4106
BSTAR          = .31871E-3
MEAN_MOTION_DOT = .8988E-4
MEAN_MOTION_DDOT = 0

CCSDS_OMM_VERS = 2.0
CREATION_DATE  = 
ORIGINATOR     = 

OBJECT_NAME    = SL-8 R/B
OBJECT_ID      = 1988-053B
CENTER_NAME    = EARTH
REF_FRAME      = TEME
TIME_SYSTEM    = UTC
MEAN_ELEMENT_THEORY = SGP/SGP4

EPOCH          = 2026-03-31T04:47:20.873760
MEAN_MOTION    = 14.38931288
ECCENTRICITY   = .00214032
INCLINATION    = 74.0459
RA_OF_ASC_NODE = 72.8130
ARG_OF_PERICENTER = 249.2383
MEAN_ANOMALY   = 122.4954

EPHEMERIS_TYPE = 0
CLASSIFICATION_TYPE = U
NORAD_CAT_ID   = 19257
ELEMENT_SET_NO = 999
REV_AT_EPOCH   = 97969
BSTAR          = .14395278E-3
MEAN_MOTION_DOT = .418E-5
MEAN_MOTION_DDOT = 0

CCSDS_OMM_VERS = 2.0
CREATION_DATE  = 
ORIGINATOR     = 

OBJECT_NAME    = COSMOS 1975
OBJECT_ID      = 1988-093A
CENTER_NAME    = EARTH
REF_FRAME      = TEME
TIME_SYSTEM    = UTC
MEAN_ELEMENT_THEORY = SGP/SGP4

EPOCH          = 2026-03-31T00:07:27.206400
MEAN_MOTION    = 15.28368127
ECCENTRICITY   = .00133893
INCLINATION    = 82.5156
RA_OF_ASC_NODE = 96.2776
ARG_OF_PERICENTER = 95.8935
MEAN_ANOMALY   = 264.3832

EPHEMERIS_TYPE = 0
CLASSIFICATION_TYPE = U
NORAD_CAT_ID   = 19573
ELEMENT_SET_NO = 999
REV_AT_EPOCH   = 2266
BSTAR          = .34896649E-3
MEAN_MOTION_DOT = .9697E-4
MEAN_MOTION_DDOT = 0

CCSDS_OMM_VERS = 2.0
CREATION_DATE  = 
ORIGINATOR     = 

OBJECT_NAME    = SL-14 R/B
OBJECT_ID      = 1988-093B
CENTER_NAME    = EARTH
REF_FRAME      = TEME
TIME_SYSTEM    = UTC
MEAN_ELEMENT_THEORY = SGP/SGP4

EPOCH          = 2026-03-31T05:23:12.497280
MEAN_MOTION    = 14.85682652
ECCENTRICITY   = .00199123
INCLINATION    = 82.5342
RA_OF_ASC_NODE = 21.8320
ARG_OF_PERICENTER = 330.8750
MEAN_ANOMALY   = 142.3690

EPHEMERIS_TYPE = 0
CLASSIFICATION_TYPE = U
NORAD_CAT_ID   = 19574
ELEMENT_SET_NO = 999
REV_AT_EPOCH   = 421
BSTAR          = .79651945E-4
MEAN_MOTION_DOT = .717E-5
MEAN_MOTION_DDOT = 0

CCSDS_OMM_VERS = 2.0
CREATION_DATE  = 
ORIGINATOR     = 

OBJECT_NAME    = SL-16 R/B
OBJECT_ID      = 1988-102B
CENTER_NAME    = EARTH
REF_FRAME      = TEME
TIME_SYSTEM    = UTC
MEAN_ELEMENT_THEORY = SGP/SGP4

EPOCH          = 2026-03-31T05:40:45.268320
MEAN_MOTION    = 14.16153535
ECCENTRICITY   = .00152195
INCLINATION    = 70.9970
RA_OF_ASC_NODE = 106.1594
ARG_OF_PERICENTER = 329.6930
MEAN_ANOMALY   = 30.3311

EPHEMERIS_TYPE = 0
CLASSIFICATION_TYPE = U
NORAD_CAT_ID   = 19650
ELEMENT_SET_NO = 999
REV_AT_EPOCH   = 92994
BSTAR          = .362002E-4
MEAN_MOTION_DOT = .24E-6
MEAN_MOTION_DDOT = 0

CCSDS_OMM_VERS = 2.0
CREATION_DATE  = 
ORIGINATOR     = 

OBJECT_NAME    = INTERCOSMOS 24
OBJECT_ID      = 1989-080A
CENTER_NAME    = EARTH
REF_FRAME      = TEME
TIME_SYSTEM    = UTC
MEAN_ELEMENT_THEORY = SGP/SGP4

EPOCH          = 2026-03-31T00:15:46.157760
MEAN_MOTION    = 12.59585250
ECCENTRICITY   = .11869129
INCLINATION    = 82.6013
RA_OF_ASC_NODE = 90.5155
ARG_OF_PERICENTER = 243.2874
MEAN_ANOMALY   = 104.2023

EPHEMERIS_TYPE = 0
CLASSIFICATION_TYPE = U
NORAD_CAT_ID   = 20261
ELEMENT_SET_NO = 999
REV_AT_EPOCH   = 66948
BSTAR          = .18090152E-3
MEAN_MOTION_DOT = .612E-5
MEAN_MOTION_DDOT = 0

CCSDS_OMM_VERS = 2.0
CREATION_DATE  = 
ORIGINATOR     = 

OBJECT_NAME    = SL-14 R/B
OBJECT_ID      = 1989-080C
CENTER_NAME    = EARTH
REF_FRAME      = TEME
TIME_SYSTEM    = UTC
MEAN_ELEMENT_THEORY = SGP/SGP4

EPOCH          = 2026-03-31T05:46:39.645696
MEAN_MOTION    = 12.50514645
ECCENTRICITY   = .12309062
INCLINATION    = 82.5952
RA_OF_ASC_NODE = 159.3575
ARG_OF_PERICENTER = 135.5133
MEAN_ANOMALY   = 235.1746

EPHEMERIS_TYPE = 0
CLASSIFICATION_TYPE = U
NORAD_CAT_ID   = 20262
ELEMENT_SET_NO = 999
REV_AT_EPOCH   = 66284
BSTAR          = .13658879E-3
MEAN_MOTION_DOT = .483E-5
MEAN_MOTION_DDOT = 0

CCSDS_OMM_VERS = 2.0
CREATION_DATE  = 
ORIGINATOR     = 

OBJECT_NAME    = DELTA 1 R/B
OBJECT_ID      = 1989-089B
CENTER_NAME    = EARTH
REF_FRAME      = TEME
TIME_SYSTEM    = UTC
MEAN_ELEMENT_THEORY = SGP/SGP4

EPOCH          = 2026-03-31T03:23:13.745184
MEAN_MOTION    = 14.50681126
ECCENTRICITY   = .00703894
INCLINATION    = 97.0689
RA_OF_ASC_NODE = 294.1650
ARG_OF_PERICENTER = 55.5283
MEAN_ANOMALY   = 305.2538

EPHEMERIS_TYPE = 0
CLASSIFICATION_TYPE = U
NORAD_CAT_ID   = 20323
ELEMENT_SET_NO = 999
REV_AT_EPOCH   = 89884
BSTAR          = .12516414E-3
MEAN_MOTION_DOT = .472E-5
MEAN_MOTION_DDOT = 0

CCSDS_OMM_VERS = 2.0
CREATION_DATE  = 
ORIGINATOR     = 

OBJECT_NAME    = ARIANE 40 R/B
OBJECT_ID      = 1990-005H
CENTER_NAME    = EARTH
REF_FRAME      = TEME
TIME_SYSTEM    = UTC
MEAN_ELEMENT_THEORY = SGP/SGP4

EPOCH          = 2026-03-31T03:31:58.132704
MEAN_MOTION    = 14.39884795
ECCENTRICITY   = .00110854
INCLINATION    = 98.3038
RA_OF_ASC_NODE = 150.1646
ARG_OF_PERICENTER = 136.1755
MEAN_ANOMALY   = 224.0315

EPHEMERIS_TYPE = 0
CLASSIFICATION_TYPE = U
NORAD_CAT_ID   = 20443
ELEMENT_SET_NO = 999
REV_AT_EPOCH   = 89589
BSTAR          = .12786505E-3
MEAN_MOTION_DOT = .36E-5
MEAN_MOTION_DDOT = 0

CCSDS_OMM_VERS = 2.0
CREATION_DATE  = 
ORIGINATOR     = 

OBJECT_NAME    = DELTA 2 R/B(1)
OBJECT_ID      = 1990-008B
CENTER_NAME    = EARTH
REF_FRAME      = TEME
TIME_SYSTEM    = UTC
MEAN_ELEMENT_THEORY = SGP/SGP4

EPOCH          = 2026-03-31T05:37:49.783872
MEAN_MOTION    = 15.58885003
ECCENTRICITY   = .00771156
INCLINATION    = 35.6038
RA_OF_ASC_NODE = 33.1588
ARG_OF_PERICENTER = 100.9790
MEAN_ANOMALY   = 259.9633

EPHEMERIS_TYPE = 0
CLASSIFICATION_TYPE = U
NORAD_CAT_ID   = 20453
ELEMENT_SET_NO = 999
REV_AT_EPOCH   = 92949
BSTAR          = .79854998E-3
MEAN_MOTION_DOT = .74414E-3
MEAN_MOTION_DDOT = 0

